{"type": "FeatureCollection", "features": [{"type": "Feature", "properties": {"norad_id": 24876, "name": "GPS BIIR-2  (PRN 13)", "group": "gps-ops", "lat": 5.139102778045313, "lon": -77.483491385243, "alt_km": 20295.600246200032, "timestamp": "2025-12-08T23:34:04.227882+00:00", "meta": {"OBJECT_NAME": "GPS BIIR-2  (PRN 13)", "OBJECT_ID": "1997-035A", "EPOCH": "2025-12-08T05:53:26.454912", "MEAN_MOTION": 2.00563507, "ECCENTRICITY": 0.00967273, "INCLINATION": 55.8931, "RA_OF_ASC_NODE": 106.0447, "ARG_OF_PERICENTER": 57.0161, "MEAN_ANOMALY": 303.881, "EPHEMERIS_TYPE": 0, "CLASSIFICATION_TYPE": "U", "NORAD_CAT_ID": 24876, "ELEMENT_SET_NO": 999, "REV_AT_EPOCH": 20812, "BSTAR": 0, "MEAN_MOTION_DOT": 1.5e-07, "MEAN_MOTION_DDOT": 0}, "tle": {"line1": "1 24876U 97035A   25342.24544508  .00000015  00000+0  00000+0 0  9993", "line2": "2 24876  55.8931 106.0447 0096727  57.0161 303.8810  2.00563507208127"}}, "geometry": {"type": "Point", "coordinates": [-77.483491385243, 5.139102778045313]}}, {"type": "Feature", "properties": {"norad_id": 26360, "name": "GPS BIIR-4  (PRN 20)", "group": "gps-ops", "lat": -54.699816311640085, "lon": -72.0854335512497, "alt_km": 20092.587217017943, "timestamp": "2025-12-08T23:34:04.227923+00:00", "meta": {"OBJECT_NAME": "GPS BIIR-4  (PRN 20)", "OBJECT_ID": "2000-025A", "EPOCH": "2025-12-08T05:53:38.603616", "MEAN_MOTION": 2.00567966, "ECCENTRICITY": 0.00388423, "INCLINATION": 55.0425, "RA_OF_ASC_NODE": 27.0197, "ARG_OF_PERICENTER": 241.5588, "MEAN_ANOMALY": 211.3182, "EPHEMERIS_TYPE": 0, "CLASSIFICATION_TYPE": "U", "NORAD_CAT_ID": 26360, "ELEMENT_SET_NO": 999, "REV_AT_EPOCH": 18744, "BSTAR": 0, "MEAN_MOTION_DOT": -8.7e-07, "MEAN_MOTION_DDOT": 0}, "tle": {"line1": "1 26360U 00025A   25342.24558569 -.00000087  00000+0  00000+0 0  9998", "line2": "2 26360  55.0425  27.0197 0038842 241.5588 211.3182  2.00567966187447"}}, "geometry": {"type": "Point", "coordinates": [-72.0854335512497, -54.699816311640085]}}, {"type": "Feature", "properties": {"norad_id": 26407, "name": "GPS BIIR-5  (PRN 22)", "group": "gps-ops", "lat": 52.34735460890164, "lon": -22.931142715385725, "alt_km": 20495.153097635033, "timestamp": "2025-12-08T23:34:04.227941+00:00", "meta": {"OBJECT_NAME": "GPS BIIR-5  (PRN 22)", "OBJECT_ID": "2000-040A", "EPOCH": "2025-12-08T14:09:49.029120", "MEAN_MOTION": 2.00567832, "ECCENTRICITY": 0.0126238, "INCLINATION": 54.8918, "RA_OF_ASC_NODE": 222.7341, "ARG_OF_PERICENTER": 301.732, "MEAN_ANOMALY": 239.5319, "EPHEMERIS_TYPE": 0, "CLASSIFICATION_TYPE": "U", "NORAD_CAT_ID": 26407, "ELEMENT_SET_NO": 999, "REV_AT_EPOCH": 18612, "BSTAR": 0, "MEAN_MOTION_DOT": 1.3e-07, "MEAN_MOTION_DDOT": 0}, "tle": {"line1": "1 26407U 00040A   25342.59015080  .00000013  00000+0  00000+0 0  9999", "line2": "2 26407  54.8918 222.7341 0126238 301.7320 239.5319  2.00567832186128"}}, "geometry": {"type": "Point", "coordinates": [-22.931142715385725, 52.34735460890164]}}, {"type": "Feature", "properties": {"norad_id": 27663, "name": "GPS BIIR-8  (PRN 16)", "group": "gps-ops", "lat": -44.996454479907435, "lon": 87.12873885901395, "alt_km": 20574.33527721578, "timestamp": "2025-12-08T23:34:04.227955+00:00", "meta": {"OBJECT_NAME": "GPS BIIR-8  (PRN 16)", "OBJECT_ID": "2003-005A", "EPOCH": "2025-12-08T15:56:33.297792", "MEAN_MOTION": 2.00571063, "ECCENTRICITY": 0.01472931, "INCLINATION": 54.9243, "RA_OF_ASC_NODE": 222.5404, "ARG_OF_PERICENTER": 51.7448, "MEAN_ANOMALY": 318.8801, "EPHEMERIS_TYPE": 0, "CLASSIFICATION_TYPE": "U", "NORAD_CAT_ID": 27663, "ELEMENT_SET_NO": 999, "REV_AT_EPOCH": 16749, "BSTAR": 0, "MEAN_MOTION_DOT": 1.2e-07, "MEAN_MOTION_DDOT": 0}, "tle": {"line1": "1 27663U 03005A   25342.66427428  .00000012  00000+0  00000+0 0  9998", "line2": "2 27663  54.9243 222.5404 0147293  51.7448 318.8801  2.00571063167497"}}, "geometry": {"type": "Point", "coordinates": [87.12873885901395, -44.996454479907435]}}, {"type": "Feature", "properties": {"norad_id": 28190, "name": "GPS BIIR-11 (PRN 19)", "group": "gps-ops", "lat": 30.25472368137361, "lon": -52.544733007431745, "alt_km": 20360.23556020399, "timestamp": "2025-12-08T23:34:04.227968+00:00", "meta": {"OBJECT_NAME": "GPS BIIR-11 (PRN 19)", "OBJECT_ID": "2004-009A", "EPOCH": "2025-12-08T00:54:44.996256", "MEAN_MOTION": 2.00560848, "ECCENTRICITY": 0.01082887, "INCLINATION": 54.99, "RA_OF_ASC_NODE": 283.4084, "ARG_OF_PERICENTER": 167.5613, "MEAN_ANOMALY": 269.7716, "EPHEMERIS_TYPE": 0, "CLASSIFICATION_TYPE": "U", "NORAD_CAT_ID": 28190, "ELEMENT_SET_NO": 999, "REV_AT_EPOCH": 15911, "BSTAR": 0, "MEAN_MOTION_DOT": -4.5e-07, "MEAN_MOTION_DDOT": 0}, "tle": {"line1": "1 28190U 04009A   25342.03802079 -.00000045  00000+0  00000+0 0  9996", "line2": "2 28190  54.9900 283.4084 0108288 167.5613 269.7716  2.00560848159112"}}, "geometry": {"type": "Point", "coordinates": [-52.544733007431745, 30.25472368137361]}}, {"type": "Feature", "properties": {"norad_id": 28474, "name": "GPS BIIR-13 (PRN 02)", "group": "gps-ops", "lat": 54.01723600025008, "lon": 79.57627449456703, "alt_km": 20570.227379053526, "timestamp": "2025-12-08T23:34:04.227981+00:00", "meta": {"OBJECT_NAME": "GPS BIIR-13 (PRN 02)", "OBJECT_ID": "2004-045A", "EPOCH": "2025-12-08T12:02:32.207424", "MEAN_MOTION": 2.00569196, "ECCENTRICITY": 0.01706814, "INCLINATION": 55.2428, "RA_OF_ASC_NODE": 332.5762, "ARG_OF_PERICENTER": 309.0669, "MEAN_ANOMALY": 163.0919, "EPHEMERIS_TYPE": 0, "CLASSIFICATION_TYPE": "U", "NORAD_CAT_ID": 28474, "ELEMENT_SET_NO": 999, "REV_AT_EPOCH": 15460, "BSTAR": 0, "MEAN_MOTION_DOT": -8.3e-07, "MEAN_MOTION_DDOT": 0}, "tle": {"line1": "1 28474U 04045A   25342.50176166 -.00000083  00000+0  00000+0 0  9996", "line2": "2 28474  55.2428 332.5762 0170681 309.0669 163.0919  2.00569196154600"}}, "geometry": {"type": "Point", "coordinates": [79.57627449456703, 54.01723600025008]}}, {"type": "Feature", "properties": {"norad_id": 28874, "name": "GPS BIIRM-1 (PRN 17)", "group": "gps-ops", "lat": 44.58413429010531, "lon": -35.63025987065501, "alt_km": 20375.54507857567, "timestamp": "2025-12-08T23:34:04.227992+00:00", "meta": {"OBJECT_NAME": "GPS BIIRM-1 (PRN 17)", "OBJECT_ID": "2005-038A", "EPOCH": "2025-12-08T01:59:22.553088", "MEAN_MOTION": 2.00578599, "ECCENTRICITY": 0.01317899, "INCLINATION": 55.0361, "RA_OF_ASC_NODE": 280.8884, "ARG_OF_PERICENTER": 293.3737, "MEAN_ANOMALY": 195.059, "EPHEMERIS_TYPE": 0, "CLASSIFICATION_TYPE": "U", "NORAD_CAT_ID": 28874, "ELEMENT_SET_NO": 999, "REV_AT_EPOCH": 14800, "BSTAR": 0, "MEAN_MOTION_DOT": -4.3e-07, "MEAN_MOTION_DDOT": 0}, "tle": {"line1": "1 28874U 05038A   25342.08289992 -.00000043  00000+0  00000+0 0  9994", "line2": "2 28874  55.0361 280.8884 0131789 293.3737 195.0590  2.00578599148009"}}, "geometry": {"type": "Point", "coordinates": [-35.63025987065501, 44.58413429010531]}}, {"type": "Feature", "properties": {"norad_id": 29486, "name": "GPS BIIRM-2 (PRN 31)", "group": "gps-ops", "lat": -31.708516208548325, "lon": 132.9083188751476, "alt_km": 20193.832202106572, "timestamp": "2025-12-08T23:34:04.228004+00:00", "meta": {"OBJECT_NAME": "GPS BIIRM-2 (PRN 31)", "OBJECT_ID": "2006-042A", "EPOCH": "2025-12-08T13:17:33.124704", "MEAN_MOTION": 2.00554246, "ECCENTRICITY": 0.01073643, "INCLINATION": 54.6936, "RA_OF_ASC_NODE": 158.9068, "ARG_OF_PERICENTER": 51.8598, "MEAN_ANOMALY": 320.1374, "EPHEMERIS_TYPE": 0, "CLASSIFICATION_TYPE": "U", "NORAD_CAT_ID": 29486, "ELEMENT_SET_NO": 999, "REV_AT_EPOCH": 14057, "BSTAR": 0, "MEAN_MOTION_DOT": 6e-07, "MEAN_MOTION_DDOT": 0}, "tle": {"line1": "1 29486U 06042A   25342.55385561  .00000060  00000+0  00000+0 0  9999", "line2": "2 29486  54.6936 158.9068 0107364  51.8598 320.1374  2.00554246140573"}}, "geometry": {"type": "Point", "coordinates": [132.9083188751476, -31.708516208548325]}}, {"type": "Feature", "properties": {"norad_id": 29601, "name": "GPS BIIRM-3 (PRN 12)", "group": "gps-ops", "lat": 14.257033853574354, "lon": -128.18380856125947, "alt_km": 20097.801714386223, "timestamp": "2025-12-08T23:34:04.228017+00:00", "meta": {"OBJECT_NAME": "GPS BIIRM-3 (PRN 12)", "OBJECT_ID": "2006-052A", "EPOCH": "2025-12-07T23:03:27.935136", "MEAN_MOTION": 2.00573134, "ECCENTRICITY": 0.00876554, "INCLINATION": 54.9714, "RA_OF_ASC_NODE": 221.5879, "ARG_OF_PERICENTER": 87.3887, "MEAN_ANOMALY": 273.7008, "EPHEMERIS_TYPE": 0, "CLASSIFICATION_TYPE": "U", "NORAD_CAT_ID": 29601, "ELEMENT_SET_NO": 999, "REV_AT_EPOCH": 13957, "BSTAR": 0, "MEAN_MOTION_DOT": 2.2e-07, "MEAN_MOTION_DDOT": 0}, "tle": {"line1": "1 29601U 06052A   25341.96073999  .00000022  00000+0  00000+0 0  9990", "line2": "2 29601  54.9714 221.5879 0087655  87.3887 273.7008  2.00573134139573"}}, "geometry": {"type": "Point", "coordinates": [-128.18380856125947, 14.257033853574354]}}, {"type": "Feature", "properties": {"norad_id": 32260, "name": "GPS BIIRM-4 (PRN 15)", "group": "gps-ops", "lat": 15.678579790922333, "lon": -103.8679559316176, "alt_km": 20062.872957316995, "timestamp": "2025-12-08T23:34:04.228029+00:00", "meta": {"OBJECT_NAME": "GPS BIIRM-4 (PRN 15)", "OBJECT_ID": "2007-047A", "EPOCH": "2025-12-07T18:25:34.370688", "MEAN_MOTION": 2.00564615, "ECCENTRICITY": 0.01643014, "INCLINATION": 53.9519, "RA_OF_ASC_NODE": 87.9639, "ARG_OF_PERICENTER": 85.1876, "MEAN_ANOMALY": 276.6737, "EPHEMERIS_TYPE": 0, "CLASSIFICATION_TYPE": "U", "NORAD_CAT_ID": 32260, "ELEMENT_SET_NO": 999, "REV_AT_EPOCH": 13297, "BSTAR": 0, "MEAN_MOTION_DOT": -1.8e-07, "MEAN_MOTION_DDOT": 0}, "tle": {"line1": "1 32260U 07047A   25341.76775892 -.00000018  00000+0  00000+0 0  9995", "line2": "2 32260  53.9519  87.9639 0164301  85.1876 276.6737  2.00564615132978"}}, "geometry": {"type": "Point", "coordinates": [-103.8679559316176, 15.678579790922333]}}]}